[{"OBJECT_NAME":"FLOCK 4G-11","OBJECT_ID":"2025-009W","EPOCH":"2026-03-09T10:57:03.681504","MEAN_MOTION":15.27220677,"ECCENTRICITY":0.00016118,"INCLINATION":97.3964,"RA_OF_ASC_NODE":150.6183,"ARG_OF_PERICENTER":333.5407,"MEAN_ANOMALY":26.575,"EPHEMERIS_TYPE":0,"CLASSIFICATION_TYPE":"U","NORAD_CAT_ID":62629,"ELEMENT_SET_NO":999,"REV_AT_EPOCH":6368,"BSTAR":0.00047740378,"MEAN_MOTION_DOT":0.00012672,"MEAN_MOTION_DDOT":0},{"OBJECT_NAME":"STARLINK-33954","OBJECT_ID":"2025-093AD","EPOCH":"2026-03-09T01:33:58.947840","MEAN_MOTION":15.27604832,"ECCENTRICITY":0.0001545,"INCLINATION":42.9998,"RA_OF_ASC_NODE":81.666,"ARG_OF_PERICENTER":282.4069,"MEAN_ANOMALY":77.6609,"EPHEMERIS_TYPE":0,"CLASSIFICATION_TYPE":"U","NORAD_CAT_ID":63863,"ELEMENT_SET_NO":999,"REV_AT_EPOCH":4765,"BSTAR":0.0014369752,"MEAN_MOTION_DOT":0.00039523,"MEAN_MOTION_DDOT":0}]
